slug,cuisineImage,title,storeAddress,representative,tel,participation,storeDescription,initiatives,brewery19,brewery20,message,storeX,storeInstagram,storeFacebook,breweryName19,breweryName20,sakePref19,sakePref20,representativeBrand19,representativeBrand20,sakeAddress19,sakeAddress20,breweryMan19,breweryMan20,breweryDescription19,breweryDescription20,breweryThoughts19,breweryThoughts20,aboutRestaurants19,aboutRestaurants20,storeX19,storeInstagram19,storeFacebook19,storeX20,storeInstagram20,storeFacebook20,cuisine19,cuisine20,sakeName19,sakeName20,cuisinePrice19,cuisinePrice20,sakePrice19,sakePrice20,setPrice19,setPrice20,sakeTemp19,sakeTemp20
enya,,焼鳥 えんや,大阪府大阪市北区豊崎３丁目６−１１,田中　進,06-6476-8443,19,"焼鳥えんや　中津店の紹介。
ビルの1階に店を構える木を基調とした店。カウンター６席と団体様に使っていただけるテーブル席もご用意しております。地鶏や銘柄鶏を紀州備長炭で焼き上げる本格焼鳥がアラカルトで味わえ、燗酒も通年ご用意。毎年蔵にも手伝いに行かせていただき、焼鳥と食中酒をメインに、お客様へ【おいしい】をお届けしております。",燗酒、食中酒をメインに置かせていただき、あつあつの焼鳥を日本酒と一緒に。日本酒のイベントも年数回参加させていただき、料理も日本酒にあうように。この料理に合う日本酒は？などの勉強会も【マキショウ】様【燗の美穂】様と一緒に。蔵にも毎年手伝いにいかせていただき、通年オリジナルの日本酒もご用意しております。,桑原酒場,,毎年毎年参加させていただき、ほんとうにありがとうございますっ！！おいしい、楽しい焼鳥を最後まで笑顔で提供させていただきますので、来場された際には是非ともあつあつの焼鳥を召し上がってください！！,,yakitori_enya,,株式会社 桑原酒場,,島根県,,扶桑鶴,,島根県益田市中島町ロ171,,大畑朋彦　代表取締役,,"蔵は島根県西端の益田市に所在しています。
蔵近くを流れる清流「高津川」の伏流水を用いて醸しています。
長寿のシンボルとして親しまれている“鶴”に飲む人、造る人ともにあやかりたいと名付けました。",,“食”との相性を求めた結果、華やかな香りは求めず“米”由来の旨みを感じさせられ、温めて美味しい日本酒を目指しています。,,「炭火焼きとり えんや様」とは様々なイベントで組ましていただいており、また、毎年酒造期には酒造りのお手伝いをしていただいています。イベント当日は、「扶桑鶴」を熟知したえんや様の料理を是非お楽しみください。,,,fusozuru,,,,,黒さつま鶏 焼鳥2本セット,,扶桑鶴 純米えんやブレンド,,600,,600,,,,"常温, お燗",
iwatsuki,iwatsuki.jpg,地酒屋いわ月,"大阪府大阪市北区天神橋4丁目6番19号天満グリーンハイツ1階
",岩月泰樹,06-7892-7172,19,"長く日本料理店で勤めてきた技術を使った、奇想天外な料理と、６０種類近く趣味で集めた日本酒との相性を、楽しんでいただく店です。
",料理を作る時は、お酒の事を考え。お酒を飲む時は、料理の事を考える。「普通、こう…」という固定観念にとらわれず、常に可能性を考えて、日本酒と、料理の相性を考えています。,2019年の上方日本酒ワールドから、仁井田本家さんには首ったけです。今回、東京から参加する「和菓子薫風」さんとのトライアングルは、とても崩せない関係になってしまいました。,,"１９日(土)に参加ですが、２０(日)に参加する東京の、「和菓子薫風」さんと、協力して今回もメニューを考えました。
実は、ネタは同じなのですが、ソースをそれぞれの得意分野の味にして、全く違うモノを作ろう！
と、なっております。
両日、両方食べても、同じものを食べた感覚は無いとおもいます。
説明しても伝わらない、しかし、食べてもらえれば、きっと表現できないほど、味わったことの無い感動を得られるはずです！",,,zizakeyaiwatsuki ,有限会社　仁井田本家,,福島県,,にいだしぜんしゅ,,福島県郡山市田村町金沢字高屋敷139番地,,内藤　高行　専務取締役,,1711年創業の全量自然米＆純米仕込の酒蔵です。自給自足を目指し、自然栽培での米作りから一貫して酒造りを行い、自社山の天然水を維持するために定期的な間伐を行い、間伐した杉で木桶も作っています。,,にいだしぜんしゅは生酛＆酵母無添加蔵付酵母仕込みをしており、日本では珍しい汲み出し四段をした濃淳で甘くジューシーな日本酒です。,,岩月さんとは仁井田本家が上方日本酒ワールドに初参加の頃からタッグを組んでおり、その見た目からは想像出来ないほど、繊細な創作料理を提供されています。今回も私自身どんなメニューを提供して頂けるのかとても楽しみです。,,,niidahonke,niidahonke,,,,餅巾着の精進味噌餡掛け,,にいだしぜんしゅ 純米,,600,,600,,1000,,"常温, お燗",
nakamuta,,食と酒なかむた,福岡県福岡市中央区平尾1-12-3,中牟田太仁,092-522-8323,20,福岡平尾で20年日本料理店を営んでます。九州の食材を中心に季節を感じられる料理を提供してます。,料理に寄り添う日本酒、お酒に合う温度なかむたの料理が引き立つお酒をお出しできるよう心がけてます。,,旭菊酒蔵さんとは長くお付き合いさせて頂いてます。先代の原田会長には大変お世話になり、常になかむたには旭菊！と言って頂けるようになりました。旭菊のお酒は料理に寄り添う酒！まさにそうだと思います。イベント当日もなかむた&旭菊の安心感を味わって頂きたいです。,福岡から参りますので、なかむたと旭菊の相性を楽しんでください。,,nakamutataiji,,,旭菊酒造株式会社,,福岡県,,旭菊,,福岡県久留米市三潴町壱町原403,,"原田頼和　代表取締役、原田好晴　常務取締役、原田理佳
",,明治33年（1900年）、朝日が昇るごとく勢いがあり日本の象徴である菊の花「旭菊」（あさひきく）を銘柄とし、創業いたしました。『旭菊酒造』の位置する筑後地方は、福岡県南部に位置した広大な筑紫平野と九重山系の豊富な水の恵の一級河川筑後川の恩恵を受け日本有数の酒どころとして発達してまいりました。,,時代が日々刻々と変化し続ける現代においても旭菊は、流行に左右されない日本古来からの米の旨みにこだわり食事に合うお酒を造り日々研鑽を重ねてあります。,,"なかむたさんは、福岡市中央区にあります。趣のある古民家で、大将の中牟田さんが厳選し、丁寧に拵える和食と絶妙な温度で出されるお燗酒を求めて、全国からファンがこられます。
どちらのお店も、旭菊のお酒を大事に出していただいていて、弊社にとって大切なお二人です。",,,,asahikikushuzo,,,,鰆の旭菊酒粕フライ,,旭菊 大地純米,,500,,500,,900,,お燗
kunpu,kunpu.jpg,和菓子薫風,東京都文京区千駄木2-24-5,つくださちこ,03-3824-3131,20,旬の食材を使った和菓子と日本酒のマリアージュを提案しています。,日本の食文化を代表する和菓子と日本酒のマリアージュを是非お楽しみ下さい。,,仁井田本家さんは薫風がオープンした13年前から蔵でスイーツデーを開催していた相性の良い蔵です。和菓子と日本酒を初めて体験する方も何度目かの方も是非お楽しみ下さい,"前日のいわ月さんと2日目の薫風の両方で仁井田本家さんの守備の広さを体験してみて下さい！
",wagashikunpu,wagashikunpu,wagashikunpu,,有限会社　仁井田本家,,福島県,,にいだしぜんしゅ,,福島県郡山市田村町金沢字高屋敷139番地,,内藤　高行　専務取締役,,1711年創業の全量自然米＆純米仕込の酒蔵です。自給自足を目指し、自然栽培での米作りから一貫して酒造りを行い、自社山の天然水を維持するために定期的な間伐を行い、間伐した杉で木桶も作っています。,,にいだしぜんしゅは生酛＆酵母無添加蔵付酵母仕込みをしており、日本では珍しい汲み出し四段をした濃淳で甘くジューシーな日本酒です。,,薫風さんとは和菓子と日本酒と言うテーマでコラボさせて頂いており、薫風さんのキャラ全開で会場一にぎやかなブースになるのではないかと期待しております。,,,,,niidahonke,niidahonke,,スパイスみたらし巾着,,おだやか 生酛 純米吟醸 うすにごり,,600,,600,,1000,,冷酒
nanakamado,nanakamado.jpg,菜々竈,大阪府大阪市西区立売堀4-4-23 大岩ビル２階,石島　亮,06-6556-9585,20,和歌山県産の無農薬野菜を中心に全国各地の旬の魚介類、世界各地の食材を使い丹精込めて作り上げたオリジナルの創作料理のお店です。,"菜々竈が提供する料理は想像以上の見た目と期待以上の味のクオリティにこだわり他のお店にはないオリジナルを大切にしています。
日本酒は他の飲食店様では飲めない銘柄を中心に全国の地酒を楽しめる様に日々旬の地酒を探求してお客様に喜んでもらえる様努めています。",,"上方日本酒ワールドでは昨年に続き2回目となる山形県『羽陽男山』さんと組ませて頂きますが一言でとても美味いお酒と巡り会えたと実感しています。
実際に昨年のイベント後に蔵元まで行かせて頂き貴重なお話しを聞いてまたイベントで一緒に組みたいとその時思ったほどすごく親近感の持てる酒蔵さんです。
２年連続同じお酒で出店しますが『羽陽男山』を知ってる方も知らない方もぜひ一度飲んでみてほしい銘柄です。","間違いなく日本酒関西最大級のイベントです！
せっかく来たんだから飲めるだけ飲んで知らない人とたくさん盛り上がって最高に楽しい1日にしてください！！
",,nanakamado7,,,男山酒造株式会社,,山形県,,羽陽男山,,山形県山形市八日町2－4－13,,尾原俊之　専務,,寛政年間創業、蔵王山系の伏流水で辛口の酒を醸しています。,,香りや甘さ、酒のインパクトではなく料理を引き立てる酒を目指しています。,,前回からお世話になっております。今回は大阪にお邪魔しますのでよろしくお願いします。,,,,,,,,山形牛の入った肉味噌 旨みたっぷりクルトン添え,,羽陽男山 無濾過生純米原酒 米袋ラベル,,700,,500,,,,"冷酒, お燗"
wakka,wakka.jpg,心斎橋和っか,大阪市中央区心斎橋筋1-3-10,上野浩司,050-5485-7044,19,心斎橋筋駅から徒歩1分。気軽に料理と日本酒をテーマに見つけにくい路地奥で日々営業しております。,季節の料理や、おでん、河内鴨。鹿児島より直送の黒豚、地鶏などご用意しております。日本酒は大阪の地酒「秋鹿」をほぼフルラインナップ！,米作りから酒造りまでの一貫造りがモットーの秋鹿酒造！その思いがたっぷり詰まったお酒はどれも野生味溢れていて、パワフルです！,,"また、みなさまと上方日本酒ワールドでご一緒出来て光栄です！たくさん飲んで、楽しみましょう！僕たちも目一杯楽しみたいと思います。
ぜひ、秋鹿酒造×心斎橋和っかのブースに遊びに来てくださいねぇー！",,shinsaibashi.wakka_official,,秋鹿酒造（有）,,大阪府,,秋鹿、奥鹿,,大阪府豊能郡能勢町倉垣1007,,奥航太朗、七代目蔵元,,"明治１９年(1886年)に初代　奥 鹿之助が創業。現代６代目が継承中。
1986年頃から酒米の栽培を始め、「米作りから酒造りまで 一貫造り」をモットーに農薬・
化学肥料は一切使用せず、自社の副産物である籾殻・米糠・酒粕で発酵堆肥を作り「山田錦・雄町」を栽培。面積は最初３haから今では30haに。弊社は純米酒のみを
製造する蔵です。自社産のお米で醸した酒は非常にピュア-で体に優しく、特に好評を頂いています。辛口で米の旨味がしっかりと、酸味が利いた深い味わいは料理と一緒にお楽しみ頂けます。",,自社産のお米で醸した酒は非常にピュア-で体に優しく、特に好評を頂いています。辛口で米の旨味がしっかりと、酸味が利いた深い味わいは料理と一緒にお楽しみ頂けます。,,心斎橋和っか,,,kohta_akishika,,,,,黒豚スパイス唐揚げ,,秋鹿 生酛純米 自営田雄町 無濾過原酒,,800,,500,,,,"常温, お燗",
donkan,,酒菜とうどん 飩燗,大阪府吹田市江の木町15-5 ライブステーション江坂1F,酒井　貴史,06-6170-5806,20,"『酒肴とお酒を楽しんで、自家製麺のうどんでを〆る』コンセプトにした、雰囲気も、
よい居酒屋です。","　自家製の麺は、小麦粉をブレンドし、『もちっとしながらも、コシのある麺』を目指し、日々、試行錯誤しながら、進化できればと思っています。
　出汁は、北海道産真昆布と、煮干しを低温で
煮出し、節類をバランス良く調合してます。
出汁割燗もおすすめです。",,"浅茅生の平井商店さんとは、前回も、タッグを
組ませていただきました。蔵元杜氏の平井さんは、お話しも上手で、お酒のブレンドなど、
楽しい仕掛けもして頂き、色々と勉強させてもらっています。",去年は、雨で、お客様も、大変だっと思いました。願えば、今回は、晴れるでしょう。,,donkan1103,,,有限会社平井商店,,滋賀県,,浅茅生,,滋賀県大津市中央1丁目2-33,,平井将太郎 婿入り蔵元,,"蔵の歴史・銘柄の由来

万治元年(1658年)創業。米の流通、中継地であり、「大津酒」としても 有名であった 大津で、酒造りの360年余の歴史をもつ 。 銘柄「浅茅生(あさぢを)」は1677年、後水尾天皇皇子聖護院含道寬親王 から当家に賜った和歌より命名させていただいたものです。",,"ひと冬、ひと冬を大切に、昔ながらの手造りにこだわりながら 「当蔵ならでは」と言われる酒を造るよう努力致しております。 また、「酒を造る」ということがデジタルに過ぎていく今の時をアナログに変え、酒を口にする人々へ手のぬくもりが伝えられたらと強く望んでいます。
浅茅生は人と寄り添うお酒として、優しさや軽やかさをイメージして造っています。",,,,,,,,,,すっぽんの小田巻蒸し,,浅茅生 上方日本酒ワールド2025 飩燗スペシャル,,600,,500,,1000,,"冷酒, 常温, お燗"
yashima,yashima.jpg,新大阪昼呑み酒場 SAKEヤシマ,大阪市淀川区西中島7-9-15,柴田　広子,06-7410-7961,19,大阪の玄関口で常時50種類以上の日本酒がお昼から楽しめる日本酒専門店です。,身体に優しい手作りランチとスパイスカレー、日本酒に合う肴をご用意してます。日本酒は西日本を中心としたラインナップです。お料理とのペアリングも是非、堪能して下さい！,吉野の風土に寄り添い、地元米、蔵付き酵母に拘った酒造りをされてる美吉野醸造様。花巴のエレガントな酸と当店のスパイス料理のペアリングを考えただけでワクワクしております。,,花巴×スパイスカレーのペアリングを是非、お試し下さい。熟女軍団でお待ちしております(笑),,sake_yashima,, ,,奈良県,,花巴,,奈良県吉野郡吉野町六田1238番地1,,橋本（杜氏）を予定しておりますが、変更ありましたらご連絡いたします。,,"日本酒「花巴（はなともえ）」を醸す美吉野醸造は、千本桜で知られる奈良吉野で豊かな自然の恩恵を受け、創業より「風土に寄り添い、人の心に感銘を与え、腑に落ちる酒」をモットーに酒造りを行っております。
奈良・吉野がある紀伊半島は、山深いその立地ゆえに昔から様々な保存食文化が根付いています。「花巴」は吉野の風土や文化、地域の産業である農業や林業と共に歩む酒造りを目指すなか、自然の調和「酸を抑制するのではなく、酸を開放する酒造り」にたどり着きました。
美吉野醸造では、醸造する全ての日本酒を「奈良県産契約栽培米」、「酵母菌無添加」で自然醸造し、より地域に根差した酒蔵として酒造りに邁進しております。",,"自然の摂理を理解したい。地域の農林業に習い、共に歩む酒造りを目指すなか、天然酵母で醸す「酸を開放する酒造り」にたどり着きました。
それは酸っぱいのではなく、余韻と複雑な味わいが酸味と美しく調和した日本酒です。製法が纏う酸の質感を大切に醸すことで、抑えきれず溢れ出す奈良吉野の情景を愉しめます。",,選び抜かれた個性派の日本酒が、料理と合わせて生き生きと愉しく提供される昼呑みの聖地。,,,"hanatomoe_official,naturalselection_sake",miyoshino.face,,,,鯖と原木椎茸のグリーンカレー,,花巴 純米樽酒 樽丸 酵母無添加,,600,,500,,1000,,"常温, お燗",
kakehashi,kakehashi.jpg,お酒とさかなかけはし,大阪市福島区福島2丁目7−20,梯隆司,06-6454-8939,20,大阪福島で時間を忘れてじっくり、ほっこりお酒と料理を愉しめるお店を目指して日々営業しております。小さなお店ですので事前のご予約をお願いしております。,"素材を生かしたシンプルな料理に日本各地から店主が選んだ日本酒を提供しております。
冷酒、お燗酒は50種ほど開栓しており、お客様の幅広いお好みに合わせて楽しんで頂けます。
食べ合わせによる日本酒との相性などから新しい発見をして頂ければ嬉しいです。",,"今回タッグを組ませて頂くのは北海道二世古酒造様です。
二世古酒造様とは上方日本酒ワールドでご縁を頂いた北海道の飲食店様から繋げて頂き上方日本酒ワールドでは2年連続のタッグとなりました。
今回は更に室蘭から酒本商店様にもご協力頂き、最高の形でお客様をお迎えさせて頂きます。",北海道のスペシャルなお酒とかけはしの料理をどうぞお愉しみ下さい。,,osake.to.sakana.kakehashi,,,有限会社　二世古酒造,,北海道,,二世古,,北海道虻田郡倶知安町字旭47,,"蔵元杜氏
水口　渉",,国際リゾートニセコエリア羊蹄山の麓にある造り酒屋です。,,北海道の原料米にこだわり、しっかりとした味わいとキレをコンセプトに醸しています。,,"かけはしさん
チーム北海道で参加していた時代から、大変お世話になっている繋がりが深い飲食店です。",,,,,,,,北海道産エゾジカのスパイス煮込み,,二世古 上方日本酒ワールド2025スペシャルブレン,,500,,500,,950,,"冷酒, 常温, お燗"
ritmicita,,日本酒とイタリアンritmicita,大阪市中央区安堂寺町2-1-14-101,藤井ひかる,06-4392-7771,20,日本酒とイタリアンの自由な発想,"料理もお酒も美味しいものを見つけると作り手の方に会いに行きます。
そしてたくさんお話を伺ったり、
実際に造りに参加させていただいたりと、
作り手の方との様々な経験を得て
作り手の方の雰囲気や気持ち、生産場所の風土からヒントに食材の調理や日本酒のマリアージュを考えております。
",,"杜氏の浦里知可良とは同じ年齢。
蔵に伺ったことも、造りに参加した事も、
リトミチタに来てくれた事もあります。
その中で浦里知可良という人間の静かで熱い想いにふれ、このお酒は人の気持ちを動かせるものだと確信しました。
",今年も気持ちを込めた最高のペアリングをお楽しみください♪,,ritmicita20,,,合資会社　浦里酒造店,,茨城県,,浦里,,茨城県つくば市吉沼982,,浦里知可良　蔵元・杜氏,,1877年創業。筑波山を北東に臨むつくば市吉沼の地で、自然の恵みと南部杜氏の熟練した技が織りなす芳醇な酒を、1年1年、大切に育んでいます。南部杜氏の伝統技術を基にした酒造りに近代的な吟醸造りを融合させ、蔵元杜氏が醸し出すお酒は“ニュー・クラシック”。蔵の風土を最大限に活かした生酛造りや、つくば市内での米作りにも挑戦し、研究学園都市つくばならではの伝統と革新を融合させた新しい酒造りを進めています。,,一番のこだわりは茨城生まれの吟醸酵母「小川酵母」にあり、「小川酵母を極める酒造り」という醸造理念のもと、茨城の豊かな風土を映し出す酒を造っています。,,同世代で最高に美味しいイタリアンを作るご夫婦！蔵の所在するつくばにまでお越しいただきつくばの風土を感じていただきました。3月には酒造りも体験していただく予定です！この度、一緒にタッグを組んで参加することが出来て光栄です！,,,,sake_brewer,chikara_urazato,,,山椒香るイカ墨チーズラザニア,,浦里うすにごり,,800,,500,,1000,,冷酒
kajinoba,kajinoba.jpg,ハナレノミカジノバ,大阪市中央区備後町3-1-2日宝アトラスビル1F,山本武司,06-6232-7977,19,"カジノバです。
自称「日本酒酒場のタワーレコード」
「食、場、人」
スタッフ全員で楽しみながらLIVEスタイルで営業し、躍動感ある空間を創っています。
","日本酒は自分がハマるきっかけになった酒、感銘を受けた酒、人や景色が見える酒などなど、メジャーからインディーズの中からセレクトし、入り口から出口までをなるべくポップに表現。日本酒ラバーを増やすため日々躍動中。
酒から始まるこれからのそれぞれの様々な楽しみとの出会いの場になればなとおもってます。
料理は和食をベースに、幅広いエッセンスを取り入れ日本酒と楽しめる様にカジノバ色にアレンジ。スターバックスのようなカフェ使いからしっかり飯まで楽しみ方もフリースタイルで。
","あべは、カジノバがスタートした8年前から使わせてもらっています。当時はまだ関西ではほとんど誰も知らなくて自分自身もお手伝いで上方日本酒ワールドに携わらせてもらった時の打ち上げがご縁でそこからの繋がりで出会った酒。そして、憧れの上方日本酒ワールドに初めてカジノバにオファーが来た時、上方がきっかけで出会った酒蔵と初出場同士で気合い入れて出場する予定だったんですがコロナで白紙。そして今回やっとタッグを組んで出場できる事に感慨深い気持ちです。あべはその時から更に進化をとげて今は大阪はもちろん、国内はもちろん世界でも評価される酒蔵となり、カジノバも微力ながら成長したつもりですが、あの当時の新参者のハングリーさはお互い持ちつつ、脂の乗った部分を共に表現したいなと思います！
「圧倒的にうまい酒」「楽しく酒造りをする」を掲げるあべ。
「圧倒的にキャッチー賑やか」
「楽しく営業すれば楽しさは伝染する」
をテーマにするカジノバ。
僕たちの酒、僕たちの料理、僕たちにしか出せないグルーヴをお楽しみくださいね♪

",,カジノバです！初出場あべと共に最高の屋台組みますんでお楽しみに！,,hanarenomicajinova,,阿部酒造株式会社,,新潟県,,あべ,,新潟県柏崎市安田3560番地,,6代目兼製造責任者　阿部 裕太　,,"1804年創業。2015年廃業予定の蔵に6代目の阿部裕太が戻り「あべ」ブランドを展開開始。若い蔵人等と共に、


1.リストランテの最初から最後まで
2.常に発酵を楽しむ
3.""""圧倒的に""""うまいを目指す
4.常に挑戦者であれ
という製造方針を軸に酒を造り、2021年までに製造数量を9年で8倍まで拡大。2021年より酒蔵とのタッチポイントを増やすべく「ノンアルコールドリンク製造販売事業」を開始。第一弾として酒蔵の伝統的な技術「米麹」作りを生かし米麹甘酒を使った「クラフトコーラシロップ」の販売開始。また、2017年より業界の活性には新たな造り手の登場が必須と考え、若手蔵人の育成にも力を入れ始める。",,原材料は新潟県、特に蔵のある柏崎市にこだわって原料を使用しています。 酒造りのコンセプトは「発酵を楽しむこと」です。 発酵に対する知的好奇心を爆発させ、“圧倒的に”うまいプロダクトを造ることを目指します。また、阿部酒造という屋根の下に、多種多様な酒造りのクリエイターが集う集団を目指しています。 さらに、阿部酒造から生まれるお酒やブランドは、「おいしくてワクワクする」ことを目指しています。 蔵が目的地になり、そして柏崎の人の自慢になり、柏崎を酒蔵流に活性化させることを目指します。,,"【カジノバ】様
最初の出会いは2017年-18年だった気がします。東京の尾崎商店様からのご縁で大阪の地でずっとうちのお酒を応援してくれています。19年に酒の会も開いてくれました。そのイベントからさらに酒屋さんの縁がつながりと大阪でずっとお世話になっている飲食店様です。",,abesakebrewery,abesakebrewery_yutaabe,,,,,ポルチーニ焼きそば,,あべブラック,,700,,600,,1200,,冷酒,
sakabakan,,ふらり酔処　酒場感,沖縄県那覇市古島1-23-2譜久原ビル1-c,根間　孝仁,098-882-1339,"19,20",純米燗酒を中心に、ひとひねりした酒のアテと老若男女楽しめる居酒屋,誰でも普段から気軽に日本酒が呑めるような居酒屋をやってます,竹鶴酒造　酒の会を通してだったり沖縄の人にも認知度が高い！社長と沖縄の城巡り楽しかった！,太田酒造場　お店のOpenの時に樽酒を使わせて頂いたり、ゴーアラウンドでも来て頂き思い入れがある！,美味しい酒と美味しいご飯を楽しんでってください,,sakabakan098,,竹鶴酒造株式会社,太田酒造場,広島県,鳥取県,竹鶴,辨天娘（べんてんむすめ）,広島県竹原市本町３－１０－２９,鳥取県八頭郡若桜町若桜１２２３−２,竹鶴敏夫、代表取締役,太田 章太郎、代表取締役,創業は享保１８（１７３３）年。広島県唯一の全量純米酒蔵である他、灘の本流生酛を小規模でもできる事を実証しただけでなく、酵母無添加生酛や木桶仕込みの先駆けとなった酒蔵です。ただ伝統に回帰するだけでなく、タブー視されていた酸味の多い日本酒を２０００年に開発したり、また「お燗するにごり酒」発祥の酒蔵でもあり、常に新たな日本酒の魅力開発に努めています。,鳥取県若桜町。昔は城下町、宿場町として栄えました。町の広さは大阪市と同じぐらいの面積ですが、その95％が森林で、冬は寒く雪が１メートル積もり、近くに氷ノ山（ひょうのせん）スキー場もあります。そういう水の豊富な土地で私たちは酒米作りを行い、酒造りを行っています。,"酒蔵の置かれた風土や歴史を日本酒に表す事が、私どものコンセプト。
竹鶴酒造の位置する広島県竹原市は豊かで干満差の大きい海に面しており、それにより味わい深い魚介に恵まれています。それに合わせるため日本酒に必要な要素がうま味であり、当蔵のうま味豊かな酒質は風土に根ざしたものです。加えてうま味の相乗効果から「食をおいしくする」という当蔵の主題が生まれました。
また広島県竹原市は江戸時代高品質な塩づくりで知られ、当蔵の純米酒や灘の本流生酛へのこだわりは、製塩を通じて培われたものづくりの精神の表れです。
製法や味わいだけでなく、その背景にある風土や歴史も共にお楽しみ下さい。", 酒造りの方針は、米をしっかりと溶かしきること。 良い米を作り、「米を１粒たりとも無駄にせず、余すことなく酒にする」ことを実践しています。 米を量るときにこぼれた米粒も手で拾い集め、洗って仕込みに使っています。 そうまでしないと出せない味わいがあると考えてます。そしてしっかりと発酵させきったお酒は心地よい酸もあり、飲んでいるとお腹がすいてきます。【食を呼ぶ酒】辨天娘（べんてんむすめ）です。,沖縄で初めて開催された２０２２年の日本酒ゴーアラウンドでお招き頂いたのが最初と思います。沖縄というと泡盛をグイグイ飲む、という印象があって「日本酒を飲んでくれるのだろうか？」という不安を胸に参りましたが、そんな中での「日本酒を知ってもらいたい」という店主の思いと丁寧な接客、お料理は大いに勇気を頂きました。 上方日本酒ワールドでも、店主の思いのお手伝いができるよう努めて参ります。,"沖縄の地で、若者を中心にいろんな人に日本酒、燗酒を伝えているお店です。
言葉を超えたものがここにはある！

と、深夜の那覇で感じました。",,,ozasaya,,bentenmusume.sake,,あぐー豚の肉じゃがコロッケ,やんばる鶏の手羽餃子,竹鶴 秘傳 純米,辨天娘 純米 玉栄,500,500,600,600,,,お燗,お燗
marukome,marukome.jpg,おでん　まる米,大阪市西成区花園南2丁目7-30天下茶屋駅前ビル101,今田晋一郎,06-6659-0222,19,"大阪・天下茶屋に店を構えております、おでんまる米です！
おでんはもちろん季節の一品料理も多数ご用意。一年中楽しんで頂けるおでん屋さんです。
少し甘めのお出汁で炊いた染み染みおでんが自慢です！","熱燗、ぬる燗、冷酒など色んな飲み方がある日本酒。更にはおでん出汁で割る""出汁割""なんてものも。
このお酒にはどんな飲み方が合うやろ？と日々模索しております。","タッグを組ませて頂くのは奈良県の千代酒造さん。
蔵で行われた試飲会に参加させて頂いた際は、酒へのこだわりにスタッフ一同""そりゃうまいわぁ""と感激しました！
篠峯のどぶろくは当店でも常備しておりたくさんの方に喜ばれております！",,多数の素晴らしいお店が参加する上方日本酒ワールドをたくさん呑んで食べて盛り上げましょう！,,oden.marukome,,千代酒造,,奈良県,,篠峯,,奈良県御所市大字櫛羅621番地,,堺哲也　代表取締役,,葛城山の麓で米作りと酒造りを行っています,,美味し過ぎない、飲み飽きない、料理と合わせて美味しく、熟成して楽しいお酒を醸しています,,活気があります^ ^,,,shinomine_kujira_official,,,,,お米の唐揚げ,,篠峯Vert 亀ノ尾80 純米無濾過生原酒,,600,,500,,,,"冷酒, お燗",
yuya,yuya.jpg,日本のお酒と ゆう屋,大阪府大阪市天王寺区舟橋町13-3-1階,辻田勇也,06-4303-4149,20,"鶴橋駅から徒歩2分の場所に位置する居酒屋です。
店の名物は、大阪府松原市のツムラ本店から仕入れる希少な国産ブランド合鴨「河内鴨」。
新鮮な河内鴨は、日本で唯一生で食べられる合鴨として有名で、その甘みと旨味を「炙り刺し」や「和風ユッケ」で存分に楽しめます◎

また、店長が自ら酒蔵に足を運び、試飲を重ねて厳選した「日本酒」は、季節に合わせたラインナップを常時取り揃え、
甘口から辛口まで多彩な銘柄をリーズナブルにお楽しみいただけます！
日本産の焼酎、ワイン、クラフトジン、ウイスキーなど、和洋折衷の飲み物も充実しており、お好きな一杯と共にディナータイムを堪能してください。

魚介や野菜も市場等で毎日仕入れ、その食材を使った鉄板焼きおすすめです。

ぜひ、鶴橋で河内鴨と自慢の日本酒を楽しむ至福のひとときをお過ごしください。スタッフ一同、心よりお待ちしております。",色々な店・場所に足を運び、そこで出会った食材やお酒、料理等を味わい、その美味しいを皆さんに味わってもらえるように、直接仕入れたり、自分なりに料理してお客様に味わって頂き、美味しいお顔とお声を頂くその瞬間の為に、お店をしてます。,,大倉本家さんは日本酒を教えてもらった方に教えてもらい、最初はフルーティーでスッと入ってくる日本酒が好きだった私ですが、当蔵のお酒も中々の深い味わいにどんどんハマっていき、蔵元さんがそれを超えてくる味を出していて、親しくさせて頂いてからは、蔵見学やちょっとしたお酒造りのお手伝いなど貴重な経験をさせて頂いた、お酒も人も大好きな蔵元さんです。,イベント出店が初めての為、オペレーションが悪くお待たせする場合もあるかもしれませんが、皆さまの美味しい楽しいお顔を見る為にさしてもらいますので、よろしくお願い致します。,,yuya.tsuruhashi,,,株式会社大倉本家,,奈良県,,大倉、金鼓,,奈良県香芝市鎌田692番地,,大倉隆彦　峰健祐,,"奈良県は香芝市というところにある酒蔵です。
お手柔らかにどうぞよろしくお願いいたします。",,厨二病全開,,"いつもありがとうございます。
大倉といえば鶴橋のゆう屋さん
どうぞよろしくお願いいたします",,,,,okura.ekimae,,,河内鴨メンチカツの酸辣湯餡掛け,,山廃純米 陽の光 無濾過生原酒,,600,,300,,,,"冷酒, お燗"
nene,nene.jpg,ご馳走ね音,大阪市北区天神橋5-3-22 安田ビル2階,穐村　朋憲,06-6882-5512,19,季節の食材を使った天ぷらとおでんのおまかせコースと約30種類の日本酒を楽しんで頂けるお店です。,お料理と日本酒の相性・ペアリングなどを意識しています。,7年前、初めて参加した日本酒のイベント(日本酒ゴーアラウンド)でもタッグを組ませて頂いた川敬商店さん‼︎蔵見学には3度お伺いしたり、仲良くして頂いてます。お店でも定番でリストに入れている大好きなお酒です！,,多種多様のお酒とお料理が楽しめる、日本酒好きには夢のようなイベントに是非ぜひお越しください！,,gochisounene,,合名会社　川敬商店,,宮城県,,黄金澤,,宮城県遠田郡美里町二郷字高玉六号７,,川名由倫（蔵元・杜氏）,,1902年に、宮城県涌谷町にて創業。ここは万葉集に歌われた日本最古の産金地で、奈良の大仏様の塗金にも使われ、お喜びになった聖武天皇によって元号が改められるほどでした。この地でお酒造りをはじめたことから、銘柄を「黄金澤」といたしました。大きな港が３つもある宮城県のやや内陸に位置しているため、新鮮な魚介類や採れたてのお野菜が手に入ります。素材を活かしたシンプルなお料理が食卓に並ぶので、私たちが造るお酒は、軽やかにお料理を引き立てあいます。,,お酒造りの理念は、「日々に、きらめきを。」。黄金が清らかな水に流れて一層美しく輝くように、精錬な心で醸し、きらめきを纏ったお酒を造りたい、と考えています。黄金澤の特徴のひとつに、創業以来絶やさず醸している「山廃仕込み」があります。一般的なイメージと異なり、弊社の山廃のお酒は驚くほど軽やかで綺麗な味わいです。それでいて奥行きが深く、しなやかな芯があるので、様々な温度で美味しさを楽しんでいただければ幸いです。,,なんやかんや年に一度はお会いしている、大好きなご夫婦です！イベントでご一緒したり、お店に伺って美味しいお料理をいただくことは、酒造りがひと段落した後の何よりのお楽しみです。「天ぷら」と「おでん」が両方楽しめるお店は少ないと思いますが、どちらもとても美味しくて、許されるのであれば毎月大阪に通って、月替わりのコースを毎月いただきたいです。。。大将・女将さんとは年が近いため、一緒に飲むとめちゃくちゃ楽しいです。蔵にもお越ししただいて、夜の仙台を徘徊した楽しい思い出があります。。。笑　今回も大賞に「ずんだシェイク」グッズを空輸します！,,,koganesawa_sake,,,,,河内鴨のロールキャベツ ふきのとう新じゃがソース,,黄金澤 純米吟醸 雄町,,700,,400,,,1000,"常温, お燗",
furusato,furusato.jpg,旨い肴と酒ふるさと,大阪府吹田市江坂町1-22-10-1E,米田勇太,06-6155-8462,19,"江坂駅徒歩3分。
季節を感じれる旬の食材をつかったお酒に合うお料理をご準備しております。日本酒ベテランの方々や日本酒飲み始めや興味はあるけど飲んだことがない方々の入り口にもなれるようなお酒もございますのでお気軽にお越し下さい。",自分自身も食べること飲むことが大好きですのでこれからも色んなことに興味をもって勉強しながらお料理やお酒が楽しいことを広めていけたらと思っています。,初めてご一緒させて頂くのですが、いつ何を飲んでも美味しく寄り添ってくれるお酒だなと思っています。,,今回で２回目の参加になるのですが、なるべくスムーズにご提供できるようスタッフ一同頑張りますので楽しむ気持ちとハートウォーミングさをお持ちの上ご来店ください！,,furusato_esaka,,株式会社水戸部酒造,,山形県,,山形正宗,,山形県天童市大字原町乙7番地,,代表取締役　水戸部朝信,,蔵人で米作りから行い、全量純米酒を醸す酒蔵,,食事に寄り添い、旨味のあるキレの良いお酒,,,,,yamagata_masamune,,,,,熟成じゃがいもと豚バラとふきのとうのタコス,,山形正宗 純米吟醸 亀の尾 生もと,,500,,500,,,,"冷酒, お燗",
fujimoto,fujimoto.jpg,和　藤もと,大阪市北区豊崎3丁目6-11 エイトビル1階,藤本　和也,06-6131-9710,20,"梅田の喧騒から少し離れた落ち着いたエリア、中津の豊崎にある日本料理店です。
旬の食材を使った月替わりのおまかせコースです。
生産者さんとの繋がりを大事にし、生産者さんの想いも料理に込めております。","毎月コースが替わるごとに、30〜40種類の日本酒のなかから、一品ごとに実際に食べ合わせて、お料理に合わせる日本酒を選んでおります。
お料理とお酒がそっと寄り添いながら、尚且つお互いの良さが引き上がる、そんな合わせ方を日々追求しております。",,"毎月食べ合わせを行なっていても、感動するほどの食べ合わせに出会うのは年に数回。
なんとその多くが菊姫さん！
流行りに流されない骨太の濃厚旨口。
当店のお料理との相性が良いんでしょう。料理に寄り添って、素材の味を一段二段と引き上げてくれます。
和藤もとと菊姫のコラボを是非味わってくださいませ。",神がかった食べ合わせをご期待下さい！上方だけに。,,wafujimoto,,,菊姫合資会社,,石川県,,菊姫,,石川県白山市鶴来新町タ8,,和田松夫,,菊姫はお米の旨味を最大限に引き出す酒造り、濃醇旨口酒です,,一の妥協がすべての妥協に連なる危険性を孕んでいます。元もと「日本酒は無形文化財である」と菊姫は思っています。だからこそ、これからも時代に流されることなく、極上のこだわりを持ち、限界のない酒造りへの挑戦を続けてまいります。,,食材から全てにおいてこだわる姿勢に感銘を受けています,,,,,kikuhime_official,,,春薫る熟じゃが饅頭おかき揚げ 熊ミンチ射込み 新玉葱摺り流し餡,,菊姫 山廃純米 平成28年度,,800,,500,,,,"冷酒, お燗"
yoneshige,yoneshige.jpg,よね重,愛知県名古屋市千種区内山3-1-15三ツ矢ビル1F,米重武,052-741-7565,19,"名古屋の千種（ちくさ）というところで和食をベースとしたお料理と優しく温めた日本酒を合わせて楽しんでいただいてます。
元々、米家（まいほーむ ）という屋号で営業してましたが、昨年秋に装いも新たに「よね重」に変わりました。",なるべくシンプルに。最初から最後までゆったりと季節を感じつつ楽しめる食べ合わせの提案を。,"旭菊さんのお酒は料理を支えて、引き立ててくれます。先代もよくおっしゃってました「食事中にお酒が主張するのはよくないんですよ。お料理があってのお酒なんです。」
そんな料理を支えてくれる旭菊酒造のお酒は当店には無くてはならないお酒です。",,"名古屋のイメージだと、味噌カツ・ひつまぶし・手羽先など味の濃いイメージかも知れませんが、店主濃い味が苦手でして…。
出汁の効いた料理が好きなんですよ。
なので「名古屋のお店か…」と思わず、イベントのためにご用意する一品と旭菊さんのお酒を是非一緒に味わって楽しんでください。身体に染みる食べ合わせをご用意します。
上方日本酒ワールド、名古屋から2回目で唯一の参加です。よろしくお願いします。",,yonenoie,,旭菊酒造株式会社,,福岡県,,旭菊,,福岡県久留米市三潴町壱町原403,,原田頼和　代表取締役、原田好晴　常務取締役、原田理佳,,明治33年（1900年）、朝日が昇るごとく勢いがあり日本の象徴である菊の花「旭菊」（あさひきく）を銘柄とし、創業いたしました。『旭菊酒造』の位置する筑後地方は、福岡県南部に位置した広大な筑紫平野と九重山系の豊富な水の恵の一級河川筑後川の恩恵を受け日本有数の酒どころとして発達してまいりました。,,時代が日々刻々と変化し続ける現代においても旭菊は、流行に左右されない日本古来からの米の旨みにこだわり食事に合うお酒を造り日々研鑽を重ねてあります。,,よね重さんですが、名古屋市千種区にあります。今年店舗をリニューアルされ、屋号も米家まいほーむからよね重に新しくされています。カジュアルなお店から、落ち着いた雰囲気の店構えになり、コース料理を中心にして、ゆっくり落ち着いて特別な時間を楽しめるお店です。,,,asahikikushuzo,,,,,三河赤鶏 柚庵漬け 九条葱餡掛け 黄柚子胡椒添え,,旭菊 綾花 特別純米 2火,,600,,400,,900,,"常温, お燗",
kussu,kussu.jpg,紀の国屋くっす〜,大阪府大阪市都島区都島本通3丁目22-17,楠原紀洋,06-6922-1776,19,地下鉄谷町線都島駅から徒歩1分ですが、少し奥まった所にあり、古民家を改装したどこか落ち着く雰囲気のお店で、日本酒は無濾過生原酒をメインに扱ってます。,"当店は無濾過生原酒を主として扱っており、旨味がしっかりしている日本酒が多く、その日本酒に合う料理を提供し、料理と日本酒とが互いに引き立ち合うようにしたいと思っています。
また、当店で扱っている日本酒は、出来るだけ造ってる方にお会いして、杜氏さんや蔵人の方の想いや情熱に共感し、提供する側としてもその想いも一緒にお客様に提供したいと考えています。","木下酒造さんとは初めて日本酒ゴーアラウンドに参加した時にタッグを組ませて頂いて、その時から杜氏のハーパーさんの考えにとても共感し、当店にもプライベートでもご来店頂けたり、打ち上げ等でお会いした時にも良くお話させて頂いています。
当店で玉川は常時提供しており一番人気です。",,上方日本酒ワールドを通じて知らないお酒や酒蔵、お店との出会いを楽しみ、また新たな扉を開いて下さると嬉しいです！,,"kinokuniyakussu
",,木下酒造　有限会社,,京都府,,玉川,,京都府京丹後市久美浜町甲山1512,,"フィリップ・ハーパー(常務、杜氏)
本田　岳明(営業主任)",,玉川は天保13年、京丹後久美浜の地で創業しました。玉川という名前の由来は蔵の隣に川上谷川という川があり玉砂利を敷き詰めた感の清流だったそうです。当時、川や湖を神聖視する習慣もあり玉(とてもきれいな)のような川というところから玉川と命名されました。以来この地で酒造りに励んでいます。,,酒が[しぼりたて]として生まれた瞬間から、熟成酒に変化していくプロセスを大切にし、五感と時間軸でお客様に感動を経験していただけるよう、真摯に酒造りに取り組んでいます。,,,,,tamagawa_official,,,,,フィッシュナゲット 酒粕バーニャカウダソース,,玉川 山廃純米 雄町 無濾過生原酒,,500,,500,,,,"冷酒, お燗",
yuniyumo,yuniyumo.jpg,ゆにゆも,大阪市北区天神橋1-10-1,葛尾雄,050-3033-0777,19,カウンター居酒屋です,他店では味わえない独創的な料理と幅広い日本酒で日本酒人口が少しでも増えればと営んでおります,個人的にもご縁があり、完成度の高いお酒で大好きです,,年に一度の日本酒のお祭り楽しんでください！,,yuniyumo,,富久錦,,兵庫県,,富久錦・純青,,兵庫県加西市三口町1048,,代表取締役社長　稲岡敬之,,酒米産地の北播磨で純米酒100%地元米100%の酒造りをしています。,,播州平野の自然の恵みである酒米で北播磨でしかできない酒造りをしています。,,誰もが思い付かないけど誰もが納得するお料理のゆにゆもさんとタッグを組ませていただき光栄です！,,,fukunishiki,,,,,牛すじと九条ネギの山椒皿うどん,,富久錦 純青 ゆにゆもブランド,,700,,500,,,,冷酒,
kawahara,kawahara.jpg,かわ原,大阪市北区豊崎2-4-21,川原　浩二,06-6131-4668,19,大阪市北区豊崎の料理屋です。,"
『酒蔵なかやま』さんと二人三脚で
お酒と料理に対して真摯に向き合い
心地よい食べ合わせを意識し
皆様に口福をお届けできるよう努めております。","大阪と新潟のハーモニー
楽しみにしていてください！",,"一緒に楽しみましょう！
ご来場お待ちしてます！",,kawaharatoyosaki,,青木酒造株式会社,,新潟県,,鶴齢/雪男,,新潟県南魚沼市塩沢1214,,目﨑祐子/営業部,,新潟県の南魚沼市という大変雪の深い地域で、江戸時代から300年以上お酒の造っている酒蔵です。,,土地の恩恵に感謝しながら「淡麗旨口」をモットーに、瓶詰したお酒はすべて雪室で貯蔵管理しています。,,"心のこもったお料理と店主の気さくな接客が嬉しい大好きなお店です。
こちらで鶴齢をいただくと改めて「いいお酒を造らなくては！」と気合が入ります。",,,yukiotoko1717,,,,,菜の花と豚角煮の飯蒸し,,鶴齢 特別純米 寒熟 熟成,,1000,,500,,,,"常温, お燗",
hakkodo,hakkodo.jpg,焼鳥　八功堂,大阪市北区中崎1丁目5-13,八塚　功太,06-6131-4668,20,真っ直ぐど真ん中の焼鳥屋,美味しい料理やお酒をよりお客様に満足してもらうために提供のタイミングやお声がけ丁寧な説明を心がけています。,,"惣誉さんは個人的にも大好きな酒蔵さんです。
以前、お話を聞かせて頂いた時に地元の方に愛飲してもらうためのお酒造りにとても頷けました。
私達も地元の方に愛される焼鳥屋を目指しています。
今回、惣誉さんとタッグを組める事がとても光栄に思っています。
相乗効果になれる様に頑張ります。","焼鳥と日本酒、間違いなく美味しいでしょう。
そこにさらに情熱を注入します！",,,,,惣誉酒造株式会社,,栃木県,,惣誉,,栃木県芳賀郡市貝町上根539,,河野 道大(こうの みちひろ)　/　専務取締役,栃木の地酒「惣誉(そうほまれ)」。製造量のうち約8割が栃木県内で消費される地酒蔵です。滋味深く軽やかな味わいをぜひお楽しみください。,,,永く親しまれるような、深みのある上品な酒質を目指しています。特徴は「山田錦」「生酛」「熟成・調合」の3つあります。兵庫県特A地区産山田錦においては東日本でトップクラスの使用量。山田錦で柔らかな酒質を実現しています。惣誉の「生酛」は伝統的な製法と現代的な技術による衛生管理を融合した造りで、上品な味わいに仕上がります。さらに、仕込みごとの瓶貯蔵による熟成と、それをもとにした瓶1本単位の緻密な調合が、酒の完成度と均一性を高めています。,,,,,,SohomareSake,sohomare,sohomare,,大和肉鶏 串焼き,,惣誉 生酛仕込 特別純米,,500,,500,,,,冷酒、お燗
utsutsuyo,utsutsuyo.jpg,スタンドうつつよ,大阪市中央区鎗屋町1-1-12,藤井章弘,なし,19,大阪市で唯一のどぶろく醸造所、その名も『大阪どぶろく醸造所』に併設する酒場、スタンドうつつよです。自社どぶろくをメインにお米の育ちに特化した日本酒やナチュラルワインやその他のお酒を気軽に楽しんでいただけるお店です！,料理は基本的には手作りで無添加、スタンドだからって手は抜きません。お酒は無農薬米で仕込んだ日本酒を中心にあれこれと。自社醸造のどぶろくはお米の育ちから考えて自然栽培米で仕込んでいます。健全な土から生まれたピュアなお米の美味しさを伝えたいという想いです。,"『うつつよのどぶろく』。自分たちで造ったお酒に、自分たちで作った料理を合わせる。そして、お客さんに楽しんでいただく。
これに尽きます！",,めいいっぱい楽しんでいってください！,,stand.ututuyo,,大阪どぶろく醸造所,,大阪府,,,,,,,,,,,,,,,,,,,,鰆と春菊のチャプチェ,,うつつよのどぶろく 自然栽培 ひとめぼれ 生,,600,,600,,,,"冷酒, お燗",
syuuroku,syuuroku.jpg,にほんしゅ屋しゅうろく,"京都市下京区御幸町通松原西入ル
石不動之町682-3 もみじの小路H-7",松井健,075-366-4606,20,燗酒とおでん、酒肴のお店です。,身体に美味しいをモットーに、かつ自然と杯がすすむお料理を作ることを心がけています。,,"秋鹿はあれこれ呑みたがる浮気性な私が初めて2杯3杯とお代わりしたお酒。
もはや秋鹿無しには生きていけません。",皆様に秋鹿と燗酒の魅力をお伝えできたらと思っております。,,nihonshuya_shuroku,,,秋鹿酒造（有）,,大阪府,,秋鹿、奥鹿,,大阪府豊能郡能勢町倉垣1007,,奥航太朗、七代目蔵元,,"明治１９年(1886年)に初代　奥 鹿之助が創業。現代６代目が継承中。
1986年頃から酒米の栽培を始め、「米作りから酒造りまで 一貫造り」をモットーに農薬・
化学肥料は一切使用せず、自社の副産物である籾殻・米糠・酒粕で発酵堆肥を作り「山田錦・雄町」を栽培。面積は最初３aから今では30haに。弊社は純米酒のみを
製造する蔵です。自社産のお米で醸した酒は非常にピュア-で体に優しく、特に好評を頂いています。辛口で米の旨味がしっかりと、酸味が利いた深い味わいは料理と一緒にお楽しみ頂けます。",,自社産のお米で醸した酒は非常にピュア-で体に優しく、特に好評を頂いています。辛口で米の旨味がしっかりと、酸味が利いた深い味わいは料理と一緒にお楽しみ頂けます。,,日本酒しゅうろく,,,,,kohta_akishika,,,スパイス香るマトン包子(パオ),,"秋鹿 ""山ラベル""山廃純米火入れ原酒 自営田山田錦",,500,,500,,,,"常温, お燗"
gaku,gaku.jpg,炭や酒  學,大阪府東大阪市昭和町2-14 サンライフ瓢箪山1A,大歳  学,072-983-6163,20,"東大阪の瓢箪山の地で、炭焼き料理や豚の串焼き「焼とん」をメインにいろいろなこだわりの料理と、種類豊富なお酒も楽しめる居酒屋をやっています。日本酒は約40〜50種類以上常備しております。
店内は落ち着きある雰囲気で、お席も広々な空間になっています。",いつもその時のベストな美味しいをお客様にお届けできるよう心がけています。日本酒初心者の方に、いかにしてより好きになってもらえるかを常に考えています。,,今回、タッグを組ませていただく森喜酒造さんはアットホームな酒蔵さんで、お酒に対して真摯に向き合い、こだわりあるお酒を醸しておられます。当店の大好きな酒蔵さんのおひとつです。,"最高ッに美味しいお酒とお料理をご用意して皆さまをお待ちしています！
ぜひお楽しみに♪
",,sumiyasake_gaku.2023,,,森喜酒造株式会社,,三重県,,るみ子の酒,,三重県伊賀市千歳４１の２,,豊本理恵　杜氏,,全量純米酒、手造りの小さな酒蔵です,,"小さな蔵だからこそできること、手間暇かけた酒造りをモットーとしています。
また自社田で山田錦を無農薬栽培し、それだけで仕込んだお酒を別誂の銘柄でカテゴライズしています",,"學さんの丁寧で一生懸命なお料理をリスペクトしています。
お酒がちゃんと寄り添ってお客様の満足が得られますよう",,,,,morikishuzo,,,豚出汁の野菜たっぷり豚つみれ,,RIE STYLE 山廃特別純米 無濾過火入,,500,,500,,,,"常温, お燗"
maebatake,maebatake.jpg,にほん酒、まえ畑,和歌山市十一番丁20,前畑 孝実,080-1501-5527,20,夫婦で営む燗酒をメインにしたカウンターのみの小さなお店。,私たちが出会った和歌山の食材を中心に、日本酒と料理の組み合わせを楽しんでもらい、『うまい』と思ってもらえるように日々心がけています。,,元々酒蔵近くでお店を開店し、改めて日本酒の素晴らしさを知るきっかけになった酒蔵ですので、共に成長していきたいと思っています。,このような大きなイベントに参加するのは初めてで不安や緊張もありますが、チームで楽しむ事を一番に、このイベントを盛り上げたいと思いますので、ぜひ和歌山ブースにお立ち寄り下さい。,,nihonshu_maebata_2021,,,株式会社吉村秀雄商店,,和歌山県,,車坂,,和歌山県岩出市畑毛72,,藤田晶子（杜氏）、酒井俊志（営業）,,大正四年、和歌山県岩出の地にて創業。和歌山平野に実りをもたらす紀の川の伏流水を使用し、紀伊半島の自然が育む海の幸、山の幸に合う食中酒として、伝統的な技術と熟成を重視した酒造りを行っています。,,"私たちが目指す食中酒は、食事に寄り添うだけではなく、食事をする「時間」をより楽しんでいただけるお酒です。
家族や友人たちと食事を囲むことは幸せなことです。そんな時間にお酒を楽しんでもらうには、食が進むほどにお酒が美味しく、心地よくなっていくことが大切です。
そのために求めるのは、料理に寄り添う「品の良い米の旨み」と「後味のキレの良さ」。この二つを両立させるために、伝統的な山廃造りをメインに据えて、旨みと透明感を併せ持ち、熟成に耐えうる酒造りを心がけています。",,"お店の中でも外でも夫婦漫才のようにいつも楽しく、居心地の良さを感じさせてくれます。和歌山の素材を使用し、お酒との相性を深く考えられた旦那さんのお料理と、そこにぴったりと寄り添う女将さんの燗つけのコンビネーションは息の合った二人だからこそ。
和歌山タッグで和歌山のいいところ見せましょう！",kurumazaka1915,,,,kurumazaka1915,kurumazaka1915,,緒方の鮎山椒春巻,,車坂 山廃純米 （限定蔵出し）,,500,,400,,,,"常温, お燗"
aonisai,"aonisai19.jpg,aonisai20.jpg",青二才,東京都中野区中野3-35-7,小椋道太,03-5340-1231,"19,20","日本酒をもっと気軽に！と、2013年より東京中野で営業しております！
毎日料理は旬を追って変わり、日本酒も10升程度が入れ替わりいつお越しいただいても新しいお酒お料理に出会えます！
大阪の皆様どうぞよろしくお願いします！",こんなに美味しく多様性のある日本酒をもっと多くの人に呑んでもらいたい！日本酒のハードルを下げるべく、少量（3勺）から、均一価格、敢えての定番を作らず日々変わるメニューで、普段日本酒を飲まない人へ日本酒との新しい出会いを提供してます。,"風の森
2020年、コロナ禍で中止になってしまった回にタッグを組ませていただく予定でした。
この5年で、世の中も変わりましたがそれ以上に新しいことにどんどんチャレンジ、ぐいぐい変革される山本さん率いる油長酒造さんと、組ませていただき光栄です。当日のお酒も期待しておいてください！","
あべ
昨年11月に酒屋大賞（全国の酒屋さんが選ぶ今最もお薦めしたい酒蔵）のGOLDを受賞したことで人気爆発の蔵ですが、代表の阿部ちゃんは実は青二才の元スタッフでもあります。それゆえに毎年PBを造ってもらっています！大阪初上陸の「AZZURRO（アズーロ）」ぜひ楽しみにいらしてください！","大阪の皆様２日間よろしくお願いします！
最高の日本酒日和になることを心より祈っております！そのスタートにピッタリのフレッシュな冷たいお酒を用意してお待ちしてます！お会いできるのを楽しみにしております！",,nakano_aonisai,,油長酒造株式会社,阿部酒造株式会社,奈良県,新潟県,風の森,あべ,奈良県御所市1160番地,新潟県柏崎市安田3560番地,山本長兵衛（代表取締役）、古高俊也（役職なし）,6代目兼製造責任者　阿部 裕太　,創業1719年、日本清酒発祥の地・奈良で、その歴史と風土を反映し、伝統技法と現代技術を重ね合わせた今だからこそできる酒造りに取り組んでいます。,"1804年創業。2015年廃業予定の蔵に6代目の阿部裕太が戻り「あべ」ブランドを展開開始。若い蔵人等と共に、


1.リストランテの最初から最後まで
2.常に発酵を楽しむ
3.""""圧倒的に""""うまいを目指す
4.常に挑戦者であれ
という製造方針を軸に酒を造り、2021年までに製造数量を9年で8倍まで拡大。2021年より酒蔵とのタッチポイントを増やすべく「ノンアルコールドリンク製造販売事業」を開始。第一弾として酒蔵の伝統的な技術「米麹」作りを生かし米麹甘酒を使った「クラフトコーラシロップ」の販売開始。また、2017年より業界の活性には新たな造り手の登場が必須と考え、若手蔵人の育成にも力を入れ始める。",「風の森」は、四半世紀以上にわたり、しぼりたて・無濾過・無加水の生酒に徹底的にこだわって醸しているブランドです。ミネラル豊富な葛城山系の超硬水で醸し、イキイキとしたライブ感や豊かな質感、一期一会の味わいを表現しています。,原材料は新潟県、特に蔵のある柏崎市にこだわって原料を使用しています。 酒造りのコンセプトは「発酵を楽しむこと」です。 発酵に対する知的好奇心を爆発させ、“圧倒的に”うまいプロダクトを造ることを目指します。また、阿部酒造という屋根の下に、多種多様な酒造りのクリエイターが集う集団を目指しています。 さらに、阿部酒造から生まれるお酒やブランドは、「おいしくてワクワクする」ことを目指しています。 蔵が目的地になり、そして柏崎の人の自慢になり、柏崎を酒蔵流に活性化させることを目指します。,飲食店激戦地・東京で、数多くのファンを抱える銘店という印象です。,"【青二才】様
最初の出会いは2015年くらい。お世話になっているカネセ商店さんからのご紹介でした。全国から日本酒が集まる東京の第一線で結果を出している蔵のお酒を勉強したい、と話をしてた時に、「日本酒をカジュアルに出させたら右に出るお店はないと」すぐに紹介してくれたのが青二才さん。しかも、青二才さんは当時神保町青二才をOPENさせるタイミング。なんとそのオープニングのタイミングで1ヶ月くらい？でお酒を説明する役割としてシフトに入らせてもらっていました。
　多くの業界関係者との出会いを作ってくれた、とにかくお世話になりっぱなしの飲食店。
PBの「Azzurro」(アズーロ)も一緒に造っています。",,kazenomori1719,,abesakebrewery,abesakebrewery_yutaabe,,大和橘香る 酒粕仕込みの出汁唐揚げ,自家製大粒マスタードと酒粕仕込みの出汁唐揚げ,風の森Magnum（マグナム）奈々露657,あべ「Azzurro」青二才PB,500,500,600,600,1000,1000,冷酒,冷酒
syoten,,炭焼尚店,大阪府八尾市北本町1-3-2,毛頭尚基,072-998-5080,20,"近鉄八尾で
比内地鶏と野菜のお店です。",シンプルに焼鳥と竹鶴,,凄い日本酒を愛してる方と言う印象です。,焼鳥と竹鶴を楽しんで下さい！,,sumiyakisyouten,,,竹鶴酒造株式会社,,広島県,,竹鶴,,広島県竹原市本町３－１０－２９,,竹鶴敏夫、代表取締役,,創業は享保１８（１７３３）年。広島県唯一の全量純米酒蔵である他、灘の本流生酛を小規模でもできる事を実証しただけでなく、酵母無添加生酛や木桶仕込みの先駆けとなった酒蔵です。ただ伝統に回帰するだけでなく、タブー視されていた酸味の多い日本酒を２０００年に開発したり、また「お燗するにごり酒」発祥の酒蔵でもあり、常に新たな日本酒の魅力開発に努めています。,,"酒蔵の置かれた風土や歴史を日本酒に表す事が、私どものコンセプト。
竹鶴酒造の位置する広島県竹原市は豊かで干満差の大きい海に面しており、それにより味わい深い魚介に恵まれています。それに合わせるため日本酒に必要な要素がうま味であり、当蔵のうま味豊かな酒質は風土に根ざしたものです。加えてうま味の相乗効果から「食をおいしくする」という当蔵の主題が生まれました。
また広島県竹原市は江戸時代高品質な塩づくりで知られ、当蔵の純米酒や灘の本流生酛へのこだわりは、製塩を通じて培われたものづくりの精神の表れです。
製法や味わいだけでなく、その背景にある風土や歴史も共にお楽しみ下さい。",,"大阪からやや外れた八尾に日本酒は「竹鶴」だけの焼き鳥屋がある。正気の沙汰とは思えませんでしたが、店主の悪い人相の陰に隠れた繊細な仕事は多くのファンを呼んでいる、そうです。
お店の基礎は金の延べ棒で出来ているなど、上沼恵美子ばりのホラ話が多いお店ですが、お料理とお酒の組み合わせに間違いはないです。",,,,,,ozasaya,,比内地鶏のつくねと酒粕ソース,,竹鶴オリジナルブレンド,,500,,500,,,,"常温, お燗"
hokura,"hokura19.jpg,hokura20.jpg",酒亭穂椋,東京都港区新橋4-5-1アーバン新橋ビルB1,村田京介,03-6435-7722,"19,20","東京　新橋にある
「鮮魚とジビエと日本酒の店」
酒亭穂椋(しゅていほくら)

市場直送の鮮魚、
猟師直送のジビエ、
農家直送の野菜、

旨味溢れる料理に
旨い日本酒を合わせて下さい

冷酒20種　燗酒50種以上　用意しております。","料理、日本酒、共通して言える事は
作り手の顔が見える事
食材も日本酒も作り手の想いを
お客様に伝える事を大切にしています。",,"今回、組ませて頂く酒蔵は
神亀さんと日置桜さん
両蔵共に10年以上のお付き合いをさせて頂いております。

蔵見学に行ったりお酒を酌み交わしたり、
両蔵共に穂椋の料理には無くてはならない存在です！
","コロナ前の2019から6年ぶりに参加させて頂きます！
最高に旨い！料理とお酒を用意します！
是非食べに来てください！",,shutei.hokura,,神亀酒造株式会社,有限会社山根酒造場,埼玉県,鳥取県,神亀、ひこ孫,日置桜,埼玉県蓮田市馬込3-74,鳥取県鳥取市青谷町大坪69-1,代表取締役　小川原貴夫,山根正紀　代表取締役,"1848年創業
1987年日本初の全量純米蔵になります。",世に媚びない酒造りを信条にしております,"「純米酒＝日本酒は熟成させ、温めて初めて世界一の醸造酒になる」事を基準と捉え、
基本に忠実に醸造して、しっかり熟成させて、飲み時を見極めて蔵出しをしております。",農は醸なりのもと、農家との関係を大事にした酒造りをしております。,,腐れ縁みたいな関係です,,,shinkame1848,,yamanesyuzou,,発酵白菜と猪鹿の水餃子,自家製モッツアレラチーズと猪鹿のメンチカツ,神亀 酒亭穂椋スペシャル 華吹雪三年熟成,日置桜 村笑ふ 其の参,600,700,500,500,,,"常温, お燗","常温, お燗"